[{"OBJECT_NAME":"IRIDIUM 146","OBJECT_ID":"2018-030F","EPOCH":"2026-03-09T19:45:19.387584","MEAN_MOTION":14.34218061,"ECCENTRICITY":0.00021492,"INCLINATION":86.4005,"RA_OF_ASC_NODE":331.9763,"ARG_OF_PERICENTER":89.3889,"MEAN_ANOMALY":270.7553,"EPHEMERIS_TYPE":0,"CLASSIFICATION_TYPE":"U","NORAD_CAT_ID":43254,"ELEMENT_SET_NO":999,"REV_AT_EPOCH":41589,"BSTAR":7.1120516e-5,"MEAN_MOTION_DOT":2.19e-6,"MEAN_MOTION_DDOT":0},{"OBJECT_NAME":"DELTA 1 DEB","OBJECT_ID":"1978-026JN","EPOCH":"2026-03-04T05:41:14.972640","MEAN_MOTION":14.32346763,"ECCENTRICITY":0.00342739,"INCLINATION":99.081,"RA_OF_ASC_NODE":173.8676,"ARG_OF_PERICENTER":25.157,"MEAN_ANOMALY":335.1273,"EPHEMERIS_TYPE":0,"CLASSIFICATION_TYPE":"U","NORAD_CAT_ID":37651,"ELEMENT_SET_NO":999,"REV_AT_EPOCH":18859,"BSTAR":0.001093343,"MEAN_MOTION_DOT":2.926e-5,"MEAN_MOTION_DDOT":0}]
